[{"OBJECT_NAME":"YAOGAN-39 05B","OBJECT_ID":"2023-194B","EPOCH":"2026-03-09T22:41:30.344640","MEAN_MOTION":15.16655635,"ECCENTRICITY":0.00092836,"INCLINATION":34.9938,"RA_OF_ASC_NODE":339.811,"ARG_OF_PERICENTER":155.8155,"MEAN_ANOMALY":204.2995,"EPHEMERIS_TYPE":0,"CLASSIFICATION_TYPE":"U","NORAD_CAT_ID":58558,"ELEMENT_SET_NO":999,"REV_AT_EPOCH":12501,"BSTAR":0.00038892506,"MEAN_MOTION_DOT":7.768e-5,"MEAN_MOTION_DDOT":0},{"OBJECT_NAME":"LEMUR-2-DEANANDMAEVE","OBJECT_ID":"2025-276N","EPOCH":"2026-03-08T19:03:57.862944","MEAN_MOTION":15.18340037,"ECCENTRICITY":0.00056277,"INCLINATION":97.4282,"RA_OF_ASC_NODE":143.0037,"ARG_OF_PERICENTER":4.7019,"MEAN_ANOMALY":355.4267,"EPHEMERIS_TYPE":0,"CLASSIFICATION_TYPE":"U","NORAD_CAT_ID":66678,"ELEMENT_SET_NO":999,"REV_AT_EPOCH":1517,"BSTAR":0.00054058789,"MEAN_MOTION_DOT":0.00011044,"MEAN_MOTION_DDOT":0}]
